{"fetched_at":"2026-07-15T06:36:05.527Z","source":"https://celestrak.org/NORAD/elements/gp.php?NAME=HAWK&FORMAT=JSON","constellation":"hawkeye-360","records":[{"OBJECT_NAME":"HAWK-12A","OBJECT_ID":"2025-138C","EPOCH":"2026-07-14T22:04:40.873728","CLASSIFICATION_TYPE":"U","MEAN_MOTION":15.18401004,"ECCENTRICITY":0.00150705,"INCLINATION":97.441,"RA_OF_ASC_NODE":198.2417,"ARG_OF_PERICENTER":47.6127,"MEAN_ANOMALY":312.638,"EPHEMERIS_TYPE":0,"NORAD_CAT_ID":64623,"ELEMENT_SET_NO":999,"REV_AT_EPOCH":5807,"BSTAR":0.000092296861,"MEAN_MOTION_DOT":0.00001835,"MEAN_MOTION_DDOT":0},{"OBJECT_NAME":"HAWK-13A","OBJECT_ID":"2026-004AF","EPOCH":"2026-07-14T22:09:24.255360","CLASSIFICATION_TYPE":"U","MEAN_MOTION":15.19357094,"ECCENTRICITY":0.00041023,"INCLINATION":97.4445,"RA_OF_ASC_NODE":194.4005,"ARG_OF_PERICENTER":221.1706,"MEAN_ANOMALY":138.922,"EPHEMERIS_TYPE":0,"NORAD_CAT_ID":67392,"ELEMENT_SET_NO":999,"REV_AT_EPOCH":2797,"BSTAR":0.00011243709,"MEAN_MOTION_DOT":0.00002309,"MEAN_MOTION_DDOT":0},{"OBJECT_NAME":"HAWK-13C","OBJECT_ID":"2026-004AG","EPOCH":"2026-07-14T22:09:11.199456","CLASSIFICATION_TYPE":"U","MEAN_MOTION":15.19356897,"ECCENTRICITY":0.00039518,"INCLINATION":97.4588,"RA_OF_ASC_NODE":194.8241,"ARG_OF_PERICENTER":224.4149,"MEAN_ANOMALY":135.6769,"EPHEMERIS_TYPE":0,"NORAD_CAT_ID":67393,"ELEMENT_SET_NO":999,"REV_AT_EPOCH":2797,"BSTAR":0.00010990135,"MEAN_MOTION_DOT":0.00002255,"MEAN_MOTION_DDOT":0},{"OBJECT_NAME":"HAWK-13B","OBJECT_ID":"2026-004AK","EPOCH":"2026-07-14T22:09:03.618720","CLASSIFICATION_TYPE":"U","MEAN_MOTION":15.19355999,"ECCENTRICITY":0.00052246,"INCLINATION":97.4528,"RA_OF_ASC_NODE":194.6475,"ARG_OF_PERICENTER":225.9137,"MEAN_ANOMALY":134.1668,"EPHEMERIS_TYPE":0,"NORAD_CAT_ID":67396,"ELEMENT_SET_NO":999,"REV_AT_EPOCH":2797,"BSTAR":0.00010960052,"MEAN_MOTION_DOT":0.00002249,"MEAN_MOTION_DDOT":0},{"OBJECT_NAME":"HAWK-14B","OBJECT_ID":"2026-067W","EPOCH":"2026-07-14T19:53:46.909824","CLASSIFICATION_TYPE":"U","MEAN_MOTION":15.18428977,"ECCENTRICITY":0.00015589,"INCLINATION":97.4561,"RA_OF_ASC_NODE":153.886,"ARG_OF_PERICENTER":1.3554,"MEAN_ANOMALY":358.7684,"EPHEMERIS_TYPE":0,"NORAD_CAT_ID":68436,"ELEMENT_SET_NO":999,"REV_AT_EPOCH":1613,"BSTAR":0.00011939284,"MEAN_MOTION_DOT":0.0000239,"MEAN_MOTION_DDOT":0},{"OBJECT_NAME":"HAWK-14C","OBJECT_ID":"2026-067AB","EPOCH":"2026-07-14T19:53:55.616352","CLASSIFICATION_TYPE":"U","MEAN_MOTION":15.18426747,"ECCENTRICITY":0.00026539,"INCLINATION":97.4499,"RA_OF_ASC_NODE":153.7666,"ARG_OF_PERICENTER":25.2611,"MEAN_ANOMALY":334.8752,"EPHEMERIS_TYPE":0,"NORAD_CAT_ID":68441,"ELEMENT_SET_NO":999,"REV_AT_EPOCH":1613,"BSTAR":0.00012038534,"MEAN_MOTION_DOT":0.0000241,"MEAN_MOTION_DDOT":0},{"OBJECT_NAME":"HAWK-14A","OBJECT_ID":"2026-067AJ","EPOCH":"2026-07-14T19:54:06.175296","CLASSIFICATION_TYPE":"U","MEAN_MOTION":15.18430358,"ECCENTRICITY":0.00033255,"INCLINATION":97.4622,"RA_OF_ASC_NODE":154.0121,"ARG_OF_PERICENTER":16.5241,"MEAN_ANOMALY":343.6101,"EPHEMERIS_TYPE":0,"NORAD_CAT_ID":68448,"ELEMENT_SET_NO":999,"REV_AT_EPOCH":1613,"BSTAR":0.00012084185,"MEAN_MOTION_DOT":0.0000242,"MEAN_MOTION_DDOT":0}]}
