HAWK-12A                
1 64623U 25138C   26195.91991752  .00001835  00000+0  92297-4 0  9995
2 64623  97.4410 198.2417 0015070  47.6127 312.6380 15.18401004 58077
HAWK-13A                
1 67392U 26004AF  26195.92319740  .00002309  00000+0  11244-3 0  9995
2 67392  97.4445 194.4005 0004102 221.1706 138.9220 15.19357094 27975
HAWK-13C                
1 67393U 26004AG  26195.92304629  .00002255  00000+0  10990-3 0  9993
2 67393  97.4588 194.8241 0003951 224.4149 135.6769 15.19356897 27970
HAWK-13B                
1 67396U 26004AK  26195.92295855  .00002249  00000+0  10960-3 0  9996
2 67396  97.4528 194.6475 0005224 225.9137 134.1668 15.19355999 27976
HAWK-14B                
1 68436U 26067W   26195.82901516  .00002390  00000+0  11939-3 0  9992
2 68436  97.4561 153.8860 0001558   1.3554 358.7684 15.18428977 16133
HAWK-14C                
1 68441U 26067AB  26195.82911593  .00002410  00000+0  12039-3 0  9999
2 68441  97.4499 153.7666 0002653  25.2611 334.8752 15.18426747 16132
HAWK-14A                
1 68448U 26067AJ  26195.82923814  .00002420  00000+0  12084-3 0  9996
2 68448  97.4622 154.0121 0003325  16.5241 343.6101 15.18430358 16135
